<?xml version="1.0" encoding="UTF-8"?>
<ndm xmlns:xsi="http://www.w3.org/2001/XMLSchema-instance" xsi:noNamespaceSchemaLocation="https://sanaregistry.org/r/ndmxml_unqualified/ndmxml-2.0.0-master-2.0.xsd">
<omm id="CCSDS_OMM_VERS" version="2.0">
<header><CREATION_DATE/><ORIGINATOR/></header><body><segment><metadata><OBJECT_NAME>ORBCOMM FM05</OBJECT_NAME><OBJECT_ID>1997-084F</OBJECT_ID><CENTER_NAME>EARTH</CENTER_NAME><REF_FRAME>TEME</REF_FRAME><TIME_SYSTEM>UTC</TIME_SYSTEM><MEAN_ELEMENT_THEORY>SGP4</MEAN_ELEMENT_THEORY></metadata><data><meanElements><EPOCH>2026-01-25T00:08:04.921728</EPOCH><MEAN_MOTION>14.46905110</MEAN_MOTION><ECCENTRICITY>.0004297</ECCENTRICITY><INCLINATION>45.0150</INCLINATION><RA_OF_ASC_NODE>22.2966</RA_OF_ASC_NODE><ARG_OF_PERICENTER>274.6852</ARG_OF_PERICENTER><MEAN_ANOMALY>85.3509</MEAN_ANOMALY></meanElements><tleParameters><EPHEMERIS_TYPE>0</EPHEMERIS_TYPE><CLASSIFICATION_TYPE>U</CLASSIFICATION_TYPE><NORAD_CAT_ID>25117</NORAD_CAT_ID><ELEMENT_SET_NO>999</ELEMENT_SET_NO><REV_AT_EPOCH>47272</REV_AT_EPOCH><BSTAR>.91435037E-3</BSTAR><MEAN_MOTION_DOT>.3208E-4</MEAN_MOTION_DOT><MEAN_MOTION_DDOT>0</MEAN_MOTION_DDOT></tleParameters></data></segment></body></omm>
<omm id="CCSDS_OMM_VERS" version="2.0">
<header><CREATION_DATE/><ORIGINATOR/></header><body><segment><metadata><OBJECT_NAME>ORBCOMM FM06</OBJECT_NAME><OBJECT_ID>1997-084G</OBJECT_ID><CENTER_NAME>EARTH</CENTER_NAME><REF_FRAME>TEME</REF_FRAME><TIME_SYSTEM>UTC</TIME_SYSTEM><MEAN_ELEMENT_THEORY>SGP4</MEAN_ELEMENT_THEORY></metadata><data><meanElements><EPOCH>2026-01-25T06:04:56.290656</EPOCH><MEAN_MOTION>14.47076267</MEAN_MOTION><ECCENTRICITY>.0003229</ECCENTRICITY><INCLINATION>45.0142</INCLINATION><RA_OF_ASC_NODE>20.5709</RA_OF_ASC_NODE><ARG_OF_PERICENTER>280.3884</ARG_OF_PERICENTER><MEAN_ANOMALY>93.9573</MEAN_ANOMALY></meanElements><tleParameters><EPHEMERIS_TYPE>0</EPHEMERIS_TYPE><CLASSIFICATION_TYPE>U</CLASSIFICATION_TYPE><NORAD_CAT_ID>25118</NORAD_CAT_ID><ELEMENT_SET_NO>999</ELEMENT_SET_NO><REV_AT_EPOCH>47368</REV_AT_EPOCH><BSTAR>.91814E-3</BSTAR><MEAN_MOTION_DOT>.3233E-4</MEAN_MOTION_DOT><MEAN_MOTION_DDOT>0</MEAN_MOTION_DDOT></tleParameters></data></segment></body></omm>
<omm id="CCSDS_OMM_VERS" version="2.0">
<header><CREATION_DATE/><ORIGINATOR/></header><body><segment><metadata><OBJECT_NAME>ORBCOMM FM07</OBJECT_NAME><OBJECT_ID>1997-084H</OBJECT_ID><CENTER_NAME>EARTH</CENTER_NAME><REF_FRAME>TEME</REF_FRAME><TIME_SYSTEM>UTC</TIME_SYSTEM><MEAN_ELEMENT_THEORY>SGP4</MEAN_ELEMENT_THEORY></metadata><data><meanElements><EPOCH>2026-01-24T23:40:32.065536</EPOCH><MEAN_MOTION>14.47081658</MEAN_MOTION><ECCENTRICITY>.0005018</ECCENTRICITY><INCLINATION>45.0135</INCLINATION><RA_OF_ASC_NODE>22.5982</RA_OF_ASC_NODE><ARG_OF_PERICENTER>269.6947</ARG_OF_PERICENTER><MEAN_ANOMALY>90.3330</MEAN_ANOMALY></meanElements><tleParameters><EPHEMERIS_TYPE>0</EPHEMERIS_TYPE><CLASSIFICATION_TYPE>U</CLASSIFICATION_TYPE><NORAD_CAT_ID>25119</NORAD_CAT_ID><ELEMENT_SET_NO>999</ELEMENT_SET_NO><REV_AT_EPOCH>47363</REV_AT_EPOCH><BSTAR>.83534271E-3</BSTAR><MEAN_MOTION_DOT>.2929E-4</MEAN_MOTION_DOT><MEAN_MOTION_DDOT>0</MEAN_MOTION_DDOT></tleParameters></data></segment></body></omm>
<omm id="CCSDS_OMM_VERS" version="2.0">
<header><CREATION_DATE/><ORIGINATOR/></header><body><segment><metadata><OBJECT_NAME>ORBCOMM FM03</OBJECT_NAME><OBJECT_ID>1998-007B</OBJECT_ID><CENTER_NAME>EARTH</CENTER_NAME><REF_FRAME>TEME</REF_FRAME><TIME_SYSTEM>UTC</TIME_SYSTEM><MEAN_ELEMENT_THEORY>SGP4</MEAN_ELEMENT_THEORY></metadata><data><meanElements><EPOCH>2026-01-25T12:45:24.485760</EPOCH><MEAN_MOTION>14.35186107</MEAN_MOTION><ECCENTRICITY>.0045823</ECCENTRICITY><INCLINATION>107.9653</INCLINATION><RA_OF_ASC_NODE>232.5460</RA_OF_ASC_NODE><ARG_OF_PERICENTER>221.7279</ARG_OF_PERICENTER><MEAN_ANOMALY>138.0362</MEAN_ANOMALY></meanElements><tleParameters><EPHEMERIS_TYPE>0</EPHEMERIS_TYPE><CLASSIFICATION_TYPE>U</CLASSIFICATION_TYPE><NORAD_CAT_ID>25158</NORAD_CAT_ID><ELEMENT_SET_NO>999</ELEMENT_SET_NO><REV_AT_EPOCH>45593</REV_AT_EPOCH><BSTAR>.76436E-3</BSTAR><MEAN_MOTION_DOT>.2083E-4</MEAN_MOTION_DOT><MEAN_MOTION_DDOT>0</MEAN_MOTION_DDOT></tleParameters></data></segment></body></omm>
<omm id="CCSDS_OMM_VERS" version="2.0">
<header><CREATION_DATE/><ORIGINATOR/></header><body><segment><metadata><OBJECT_NAME>ORBCOMM FM04</OBJECT_NAME><OBJECT_ID>1998-007C</OBJECT_ID><CENTER_NAME>EARTH</CENTER_NAME><REF_FRAME>TEME</REF_FRAME><TIME_SYSTEM>UTC</TIME_SYSTEM><MEAN_ELEMENT_THEORY>SGP4</MEAN_ELEMENT_THEORY></metadata><data><meanElements><EPOCH>2026-01-25T11:28:07.409856</EPOCH><MEAN_MOTION>14.35419901</MEAN_MOTION><ECCENTRICITY>.0041556</ECCENTRICITY><INCLINATION>107.9650</INCLINATION><RA_OF_ASC_NODE>235.8082</RA_OF_ASC_NODE><ARG_OF_PERICENTER>219.3060</ARG_OF_PERICENTER><MEAN_ANOMALY>140.5061</MEAN_ANOMALY></meanElements><tleParameters><EPHEMERIS_TYPE>0</EPHEMERIS_TYPE><CLASSIFICATION_TYPE>U</CLASSIFICATION_TYPE><NORAD_CAT_ID>25159</NORAD_CAT_ID><ELEMENT_SET_NO>999</ELEMENT_SET_NO><REV_AT_EPOCH>45611</REV_AT_EPOCH><BSTAR>.71072E-3</BSTAR><MEAN_MOTION_DOT>.1932E-4</MEAN_MOTION_DOT><MEAN_MOTION_DDOT>0</MEAN_MOTION_DDOT></tleParameters></data></segment></body></omm>
<omm id="CCSDS_OMM_VERS" version="2.0">
<header><CREATION_DATE/><ORIGINATOR/></header><body><segment><metadata><OBJECT_NAME>ORBCOMM FM17</OBJECT_NAME><OBJECT_ID>1998-046A</OBJECT_ID><CENTER_NAME>EARTH</CENTER_NAME><REF_FRAME>TEME</REF_FRAME><TIME_SYSTEM>UTC</TIME_SYSTEM><MEAN_ELEMENT_THEORY>SGP4</MEAN_ELEMENT_THEORY></metadata><data><meanElements><EPOCH>2026-01-25T00:18:35.933760</EPOCH><MEAN_MOTION>14.35649501</MEAN_MOTION><ECCENTRICITY>.00027005</ECCENTRICITY><INCLINATION>44.9939</INCLINATION><RA_OF_ASC_NODE>290.2861</RA_OF_ASC_NODE><ARG_OF_PERICENTER>273.1465</ARG_OF_PERICENTER><MEAN_ANOMALY>86.9073</MEAN_ANOMALY></meanElements><tleParameters><EPHEMERIS_TYPE>0</EPHEMERIS_TYPE><CLASSIFICATION_TYPE>U</CLASSIFICATION_TYPE><NORAD_CAT_ID>25413</NORAD_CAT_ID><ELEMENT_SET_NO>999</ELEMENT_SET_NO><REV_AT_EPOCH>43504</REV_AT_EPOCH><BSTAR>.53015314E-3</BSTAR><MEAN_MOTION_DOT>.1402E-4</MEAN_MOTION_DOT><MEAN_MOTION_DDOT>0</MEAN_MOTION_DDOT></tleParameters></data></segment></body></omm>
<omm id="CCSDS_OMM_VERS" version="2.0">
<header><CREATION_DATE/><ORIGINATOR/></header><body><segment><metadata><OBJECT_NAME>ORBCOMM FM18</OBJECT_NAME><OBJECT_ID>1998-046B</OBJECT_ID><CENTER_NAME>EARTH</CENTER_NAME><REF_FRAME>TEME</REF_FRAME><TIME_SYSTEM>UTC</TIME_SYSTEM><MEAN_ELEMENT_THEORY>SGP4</MEAN_ELEMENT_THEORY></metadata><data><meanElements><EPOCH>2026-01-25T12:40:29.400384</EPOCH><MEAN_MOTION>14.39305777</MEAN_MOTION><ECCENTRICITY>.000367</ECCENTRICITY><INCLINATION>44.9906</INCLINATION><RA_OF_ASC_NODE>199.1588</RA_OF_ASC_NODE><ARG_OF_PERICENTER>319.9996</ARG_OF_PERICENTER><MEAN_ANOMALY>40.0582</MEAN_ANOMALY></meanElements><tleParameters><EPHEMERIS_TYPE>0</EPHEMERIS_TYPE><CLASSIFICATION_TYPE>U</CLASSIFICATION_TYPE><NORAD_CAT_ID>25414</NORAD_CAT_ID><ELEMENT_SET_NO>999</ELEMENT_SET_NO><REV_AT_EPOCH>43627</REV_AT_EPOCH><BSTAR>.72418E-3</BSTAR><MEAN_MOTION_DOT>.2128E-4</MEAN_MOTION_DOT><MEAN_MOTION_DDOT>0</MEAN_MOTION_DDOT></tleParameters></data></segment></body></omm>
<omm id="CCSDS_OMM_VERS" version="2.0">
<header><CREATION_DATE/><ORIGINATOR/></header><body><segment><metadata><OBJECT_NAME>ORBCOMM FM19</OBJECT_NAME><OBJECT_ID>1998-046C</OBJECT_ID><CENTER_NAME>EARTH</CENTER_NAME><REF_FRAME>TEME</REF_FRAME><TIME_SYSTEM>UTC</TIME_SYSTEM><MEAN_ELEMENT_THEORY>SGP4</MEAN_ELEMENT_THEORY></metadata><data><meanElements><EPOCH>2026-01-25T12:14:44.485440</EPOCH><MEAN_MOTION>14.39128776</MEAN_MOTION><ECCENTRICITY>.000248</ECCENTRICITY><INCLINATION>44.9914</INCLINATION><RA_OF_ASC_NODE>201.5808</RA_OF_ASC_NODE><ARG_OF_PERICENTER>311.0178</ARG_OF_PERICENTER><MEAN_ANOMALY>83.6909</MEAN_ANOMALY></meanElements><tleParameters><EPHEMERIS_TYPE>0</EPHEMERIS_TYPE><CLASSIFICATION_TYPE>U</CLASSIFICATION_TYPE><NORAD_CAT_ID>25415</NORAD_CAT_ID><ELEMENT_SET_NO>999</ELEMENT_SET_NO><REV_AT_EPOCH>43622</REV_AT_EPOCH><BSTAR>.69527E-3</BSTAR><MEAN_MOTION_DOT>.2029E-4</MEAN_MOTION_DOT><MEAN_MOTION_DDOT>0</MEAN_MOTION_DDOT></tleParameters></data></segment></body></omm>

</ndm>
