ORBCOMM FM05            
1 25117U 97084F   26025.00561252  .00003208  00000+0  91435-3 0  9997
2 25117  45.0150  22.2966 0004297 274.6852  85.3509 14.46905110472729
ORBCOMM FM06            
1 25118U 97084G   26025.25342929  .00003233  00000+0  91814-3 0  9992
2 25118  45.0142  20.5709 0003229 280.3884  93.9573 14.47076267473685
ORBCOMM FM07            
1 25119U 97084H   26024.98648224  .00002929  00000+0  83534-3 0  9990
2 25119  45.0135  22.5982 0005018 269.6947  90.3330 14.47081658473638
ORBCOMM FM03            
1 25158U 98007B   26025.53153340  .00002083  00000+0  76436-3 0  9995
2 25158 107.9653 232.5460 0045823 221.7279 138.0362 14.35186107455933
ORBCOMM FM04            
1 25159U 98007C   26025.47786354  .00001932  00000+0  71072-3 0  9999
2 25159 107.9650 235.8082 0041556 219.3060 140.5061 14.35419901456113
ORBCOMM FM17            
1 25413U 98046A   26025.01291590  .00001402  00000+0  53015-3 0  9997
2 25413  44.9939 290.2861 0002700 273.1465  86.9073 14.35649501435047
ORBCOMM FM18            
1 25414U 98046B   26025.52811806  .00002128  00000+0  72418-3 0  9996
2 25414  44.9906 199.1588 0003670 319.9996  40.0582 14.39305777436270
ORBCOMM FM19            
1 25415U 98046C   26025.51023710  .00002029  00000+0  69527-3 0  9992
2 25415  44.9914 201.5808 0002480 311.0178  83.6909 14.39128776436229
